[{"OBJECT_NAME":"CUBESX-HSE 3 (RS42S)","OBJECT_ID":"2023-091N","EPOCH":"2026-03-09T22:57:25.321248","MEAN_MOTION":15.286147,"ECCENTRICITY":0.00127191,"INCLINATION":97.5203,"RA_OF_ASC_NODE":133.4295,"ARG_OF_PERICENTER":86.5376,"MEAN_ANOMALY":273.7318,"EPHEMERIS_TYPE":0,"CLASSIFICATION_TYPE":"U","NORAD_CAT_ID":57178,"ELEMENT_SET_NO":999,"REV_AT_EPOCH":14925,"BSTAR":0.00059055694,"MEAN_MOTION_DOT":0.00016417,"MEAN_MOTION_DDOT":0},{"OBJECT_NAME":"STARLINK-35996","OBJECT_ID":"2025-278K","EPOCH":"2026-03-09T10:22:44.358240","MEAN_MOTION":15.27581683,"ECCENTRICITY":0.00010291,"INCLINATION":42.9976,"RA_OF_ASC_NODE":115.4772,"ARG_OF_PERICENTER":262.9812,"MEAN_ANOMALY":97.0923,"EPHEMERIS_TYPE":0,"CLASSIFICATION_TYPE":"U","NORAD_CAT_ID":66800,"ELEMENT_SET_NO":999,"REV_AT_EPOCH":1517,"BSTAR":0.0011010582,"MEAN_MOTION_DOT":0.00030162,"MEAN_MOTION_DDOT":0}]
